[{"OBJECT_NAME":"STARLINK-5010","OBJECT_ID":"2022-119AW","EPOCH":"2026-03-09T22:05:11.244192","MEAN_MOTION":15.08846291,"ECCENTRICITY":0.00015003,"INCLINATION":53.2184,"RA_OF_ASC_NODE":302.8284,"ARG_OF_PERICENTER":85.0705,"MEAN_ANOMALY":275.0458,"EPHEMERIS_TYPE":0,"CLASSIFICATION_TYPE":"U","NORAD_CAT_ID":53930,"ELEMENT_SET_NO":999,"REV_AT_EPOCH":19200,"BSTAR":5.1761978e-5,"MEAN_MOTION_DOT":5.36e-6,"MEAN_MOTION_DDOT":0},{"OBJECT_NAME":"COSMOS 2084","OBJECT_ID":"1990-055A","EPOCH":"2026-03-09T23:42:10.320480","MEAN_MOTION":15.05654003,"ECCENTRICITY":0.00170188,"INCLINATION":62.7921,"RA_OF_ASC_NODE":334.5624,"ARG_OF_PERICENTER":190.1371,"MEAN_ANOMALY":169.9389,"EPHEMERIS_TYPE":0,"CLASSIFICATION_TYPE":"U","NORAD_CAT_ID":20663,"ELEMENT_SET_NO":999,"REV_AT_EPOCH":93636,"BSTAR":0.00023056361,"MEAN_MOTION_DOT":3.154e-5,"MEAN_MOTION_DDOT":0}]
